STARLINK-30356          
1 57748U 23131S   26066.25001157  .00677862  00000+0  37400-1 0  9992
2 57748  43.0007 184.6208 0001199 279.4097  27.7258 15.10837807  5785
STARLINK-30366          
1 57749U 23131T   26066.32469016  .00005774  00000+0  43995-3 0  9998
2 57749  43.0008 184.1886 0001364 249.5457 110.5239 15.02725892139572
STARLINK-30357          
1 57750U 23131U   26066.33540862  .00001180  00000+0  10238-3 0  9991
2 57750  43.0015 184.2686 0001321 270.1503  89.9188 15.02536629139576
STARLINK-30370          
1 57751U 23131V   26066.25001157  .01549649  00000+0  55561-1 0  9996
2 57751  43.0002 171.2587 0002060 276.5536 296.5864 15.24909124  5797
STARLINK-30368          
1 57752U 23131W   26066.29426129  .00120134  00000+0  85176-2 0  9990
2 57752  43.0023 184.7858 0004373 304.6620  55.3810 15.03574874139569
STARLINK-30343          
1 57753U 23131X   26065.60748079  .00000514  00000+0  53105-4 0  9994
2 57753  43.0026 188.2680 0001243 257.8691 102.2012 15.02537176139463
STARLINK-30397          
1 57771U 23134A   26065.48149513  .00001004  00000+0  45996-4 0  9995
2 57771  43.0012 212.8229 0001535 287.6245  72.4439 15.27587725139015
STARLINK-30354          
1 57772U 23134B   26066.25001157  .00101826  00000+0  57884-2 0  9993
2 57772  43.0009 210.1442 0001740 247.5042  34.0893 15.11808001  5788
STARLINK-30383          
1 57773U 23134C   26066.25001157  .00583867  00000+0  29577-1 0  9990
2 57773  43.0010 210.5871 0001608 278.4002 181.1960 15.13877646  5673
STARLINK-30384          
1 57774U 23134D   26066.25001157  .00100623  00000+0  52168-2 0  9999
2 57774  43.0008 210.3795 0001321 296.0553 249.5257 15.15097688  5729
STARLINK-30305          
1 57775U 23134E   26065.41997024  .00007181  00000+0  27038-3 0  9998
2 57775  43.0013 213.2169 0001237 250.6654 109.4064 15.27559211139004
STARLINK-30360          
1 57776U 23134F   26066.00008102  .00004942  00000+0  19374-3 0  9991
2 57776  43.0009 209.9187 0001462 283.4473  39.9539 15.26747971  5798
STARLINK-30355          
1 57777U 23134G   26066.25001157  .00088577  00000+0  50160-2 0  9995
2 57777  43.0004 210.5466 0001921 299.4814 161.9756 15.12024725  5773
STARLINK-30385          
1 57778U 23134H   26066.25001157  .00146006  00000+0  53619-2 0  9990
2 57778  43.0001 196.6820 0000660 253.2390 291.5355 15.26640321  5782
STARLINK-30359          
1 57779U 23134J   26066.25001157  .00881975  00000+0  35214-1 0  9992
2 57779  43.0007 196.8775 0001591 287.2711 188.5024 15.21958867  5722
STARLINK-30380          
1 57780U 23134K   26066.25001157  .00057861  00000+0  20980-2 0  9998
2 57780  43.0006 208.1824 0001296 278.5683 113.0436 15.27544393  5639
STARLINK-30369          
1 57781U 23134L   26066.10965613  .00002664  00000+0  10631-3 0  9993
2 57781  43.0016 208.9223 0001198 282.2175  77.8542 15.27573776139114
STARLINK-30376          
1 57782U 23134M   26066.09769872  .00003572  00000+0  14275-3 0  9998
2 57782  43.0010 208.8451 0001268 274.8156  85.2551 15.26751324139114
STARLINK-30389          
1 57783U 23134N   26066.25001157  .00952386  00000+0  49740-1 0  9991
2 57783  43.0010 210.3714 0001190 287.0054 260.8228 15.12780016  5784
STARLINK-30388          
1 57784U 23134P   26065.44924368  .00089029  00000+0  32488-2 0  9997
2 57784  43.0019 212.5768 0001274 258.2828 101.7880 15.27143903139014
STARLINK-30381          
1 57785U 23134Q   26066.25001157  .00110698  00000+0  39841-2 0  9997
2 57785  43.0007 208.1944 0001380 271.8562  77.4610 15.27481824  5720
STARLINK-30382          
1 57786U 23134R   26066.09173869  .00002556  00000+0  10491-3 0  9994
2 57786  42.9978 208.7999 0001423 274.4444  85.6244 15.26743389139119
STARLINK-30378          
1 57787U 23134S   26066.25001157  .00656340  00000+0  23372-1 0  9999
2 57787  43.0076 208.3576 0001483 285.7293  33.7292 15.26128206  5788
STARLINK-30387          
1 57788U 23134T   26066.25001157  .01017436  00000+0  43452-1 0  9999
2 57788  42.9993 196.5196 0001295 255.6706  11.8274 15.19697553  5782
STARLINK-30372          
1 57789U 23134U   26066.10885895 -.00001507  00000+0 -45296-4 0  9997
2 57789  42.9978  92.9488 0000884 274.2975  85.7775 15.27565880140475
STARLINK-30367          
1 57791U 23134W   26066.25001157  .00054861  00000+0  20410-2 0  9995
2 57791  43.0006 208.2154 0001357 269.8274 109.5743 15.26719491  5582
STARLINK-30374          
1 57809U 23138B   26066.25001157  .00004729  00000+0  18122-3 0  9995
2 57809  43.0009 247.6822 0001577 279.2799 253.0724 15.27589069  5733
STARLINK-30394          
1 57810U 23138C   26066.25001157  .00004962  00000+0  19450-3 0  9991
2 57810  43.0008 247.8547 0001462 271.8061 188.5494 15.26746849  5638
STARLINK-30379          
1 57811U 23138D   26066.25001157  .00086995  00000+0  32217-2 0  9993
2 57811  43.0009 247.8917 0001213 281.6130 162.7364 15.26668654  5638
STARLINK-30395          
1 57812U 23138E   26066.25001157  .00062273  00000+0  23166-2 0  9990
2 57812  43.0006 247.8699 0001582 282.2162 170.7766 15.26669955  5780
STARLINK-30403          
1 57813U 23138F   26066.25001157  .00003025  00000+0  12234-3 0  9996
2 57813  43.0008 247.9673 0001659 278.9189 132.6995 15.26761436  5735
STARLINK-30413          
1 57814U 23138G   26066.25001157  .01432557  00000+0  58101-1 0  9995
2 57814  42.9999 248.2527 0002073 278.9470  14.2632 15.20972292  5729
STARLINK-30398          
1 57815U 23138H   26066.25001157 -.00011454  00000+0 -41782-3 0  9995
2 57815  43.0000 248.1014 0001381 274.0494  80.4580 15.26751833  5784
STARLINK-30386          
1 57816U 23138J   26066.25001157  .00782727  00000+0  30449-1 0  9998
2 57816  43.0004 248.0829 0002013 288.5927  72.9530 15.22731516  5789
STARLINK-30391          
1 57817U 23138K   26066.25001157  .01420621  00000+0  54028-1 0  9991
2 57817  43.0003 248.1448 0001936 280.5264  55.6312 15.23190409  5783
STARLINK-30401          
1 57818U 23138L   26066.25001157  .01366671  00000+0  52869-1 0  9997
2 57818  43.0001 248.1075 0001894 281.9125  66.8548 15.22725712  5787
STARLINK-30390          
1 57819U 23138M   26066.25001157  .01481668  00000+0  54365-1 0  9995
2 57819  43.0003 248.0288 0001704 291.6103  91.7148 15.24272831  5727
STARLINK-30409          
1 57820U 23138N   26066.25001157  .00001218  00000+0  55093-4 0  9997
2 57820  43.0004 247.5115 0001862 276.3911 317.7377 15.26727459  5622
STARLINK-30415          
1 57821U 23138P   26066.25001157  .01014917  00000+0  37913-1 0  9997
2 57821  43.0016 248.1922 0001649 284.6617  30.5100 15.23828608  5626
STARLINK-30407          
1 57823U 23138R   26066.25112484  .00000646  00000+0  33009-4 0  9993
2 57823  43.0014 142.5558 0001467 254.8152 105.2537 15.27575769139598
STARLINK-30408          
1 57824U 23138S   26066.25001157 -.00013847  00000+0 -50731-3 0  9997
2 57824  43.0004 247.4579 0001554 271.3398 352.9885 15.26751340  5677
STARLINK-30377          
1 57825U 23138T   26066.25001157  .00067155  00000+0  24951-2 0  9991
2 57825  43.0002 247.6318 0002042 269.4919 281.2186 15.26677764  5775
STARLINK-30422          
1 57826U 23138U   26066.25001157  .01665598  00000+0  59726-1 0  9995
2 57826  43.0004 247.7607 0001381 244.7546 250.2767 15.24661666  5770
STARLINK-30402          
1 57827U 23138V   26066.25001157  .00875728  00000+0  34999-1 0  9998
2 57827  43.0003 247.7117 0001057 266.8421 249.8228 15.21941399  5770
STARLINK-30411          
1 57828U 23138W   26066.25001157 -.00127178  00000+0 -48031-2 0  9993
2 57828  43.0030 247.7451 0001521 283.5389 211.2730 15.26810940  5770
STARLINK-30418          
1 57829U 23138X   26066.25001157  .00091499  00000+0  33881-2 0  9995
2 57829  42.9993 247.5896 0001714 267.2230 300.6321 15.26647265  5784
STARLINK-30285          
1 57840U 23141A   26066.05092322 -.00006634  00000+0 -21181-3 0  9994
2 57840  53.1613 296.3969 0002016 119.4614 240.6588 15.30232528139922
STARLINK-30410          
1 57841U 23141B   26066.06354552  .00003588  00000+0  13319-3 0  9999
2 57841  53.1597 296.2912 0001159  98.3820 261.7312 15.30203131139929
STARLINK-30435          
1 57842U 23141C   26066.00141186  .00008604  00000+0  30270-3 0  9990
2 57842  53.1609 296.6435 0001193  95.7749 264.3388 15.30155346139912
STARLINK-30423          
1 57843U 23141D   26066.07093780  .00000281  00000+0  21622-4 0  9999
2 57843  53.1604 296.3208 0001424  84.1528 275.9636 15.30194092139923
STARLINK-30292          
1 57844U 23141E   26066.01291045 -.00014189  00000+0 -46695-3 0  9998
2 57844  53.1602 296.1761 0000892  71.2966 288.8132 15.30261716139927
STARLINK-30416          
1 57847U 23141H   26066.05724220  .00001539  00000+0  64055-4 0  9995
2 57847  53.1614 296.4039 0001207 112.3778 247.7351 15.30202674139928
STARLINK-30426          
1 57848U 23141J   26066.07410816 -.00000396  00000+0 -12372-5 0  9999
2 57848  53.1616 296.3085 0001709  67.1358 292.9823 15.30186260139927
STARLINK-30430          
1 57849U 23141K   26066.05410407  .00021054  00000+0  72127-3 0  9998
2 57849  53.1605 296.4273 0001095 114.1841 245.9274 15.30186507139926
STARLINK-30425          
1 57850U 23141L   26066.01195095  .00001182  00000+0  52049-4 0  9991
2 57850  53.1606 296.6372 0001174  97.0833 263.0302 15.30187080139918
STARLINK-30405          
1 57851U 23141M   26066.06040907  .00000575  00000+0  31529-4 0  9993
2 57851  53.1599 296.4115 0001051  82.9160 277.1960 15.30188600139929
STARLINK-30431          
1 57852U 23141N   26066.01820504  .00000414  00000+0  26111-4 0  9991
2 57852  53.1598 296.2026 0000961  93.9479 266.1632 15.30196131139913
STARLINK-30404          
1 57853U 23141P   26065.94867301  .00000426  00000+0  26518-4 0  9993
2 57853  53.1603 296.4801 0001077  92.3957 267.7167 15.30184686139919
STARLINK-30412          
1 57854U 23141Q   26066.02453648  .00004935  00000+0  17859-3 0  9995
2 57854  53.1611 296.2418 0001196  74.4214 285.6919 15.30206847139929
